start=new Date('2021-10-03T00:00:00.000Z').valueOf();
sats=[{"ELEMENT_SET_NO":"999","OBJECT_NAME":"STARLINK-2712","RA_OF_ASC_NODE":"181.9906","CLASSIFICATION_TYPE":"U","CENTER_NAME":"EARTH","TLE_LINE2":"2 48674  53.0551 181.9906 0001947  70.4398 289.6801 15.06395965 19740","TLE_LINE1":"1 48674U 21044AN  21275.15251777  .00000535  00000-0  54803-4 0  9999","DECAY_DATE":null,"BSTAR":"0.00005480300000","PERIAPSIS":"545.878","EPOCH":"2021-10-02T03:39:37.535328","APOAPSIS":"548.574","MEAN_MOTION_DDOT":"0.0000000000000","SITE":"AFETR","RCS_SIZE":"LARGE","MEAN_MOTION_DOT":"0.00000535","ARG_OF_PERICENTER":"70.4398","TIME_SYSTEM":"UTC","REV_AT_EPOCH":"1974","ECCENTRICITY":"0.00019470","PERIOD":"95.592","MEAN_MOTION":"15.06395965","MEAN_ELEMENT_THEORY":"SGP4","REF_FRAME":"TEME","LAUNCH_DATE":"2021-05-26","COUNTRY_CODE":"US","SEMIMAJOR_AXIS":"6925.361","OBJECT_ID":"2021-044AN","GP_ID":"186016662","FILE":"3140732","NORAD_CAT_ID":"48674","INCLINATION":"53.0551","OBJECT_TYPE":"PAYLOAD","MEAN_ANOMALY":"289.6801","EPHEMERIS_TYPE":"0"},{"BSTAR":"0.00017351000000","PERIAPSIS":"545.971","RA_OF_ASC_NODE":"180.5163","OBJECT_NAME":"STARLINK-2737","ELEMENT_SET_NO":"999","TLE_LINE1":"1 48675U 21044AP  21275.48055371  .00002304  00000-0  17351-3 0  9990","TLE_LINE2":"2 48675  53.0562 180.5163 0001771  70.2196 289.8984 15.06405252 19792","DECAY_DATE":null,"CENTER_NAME":"EARTH","CLASSIFICATION_TYPE":"U","MEAN_MOTION_DOT":"0.00002304","ARG_OF_PERICENTER":"70.2196","APOAPSIS":"548.424","EPOCH":"2021-10-02T11:31:59.840544","RCS_SIZE":"LARGE","MEAN_MOTION_DDOT":"0.0000000000000","SITE":"AFETR","MEAN_ELEMENT_THEORY":"SGP4","MEAN_MOTION":"15.06405252","REV_AT_EPOCH":"1979","ECCENTRICITY":"0.00017710","TIME_SYSTEM":"UTC","PERIOD":"95.592","GP_ID":"186054084","FILE":"3141323","OBJECT_ID":"2021-044AP","SEMIMAJOR_AXIS":"6925.332","EPHEMERIS_TYPE":"0","MEAN_ANOMALY":"289.8984","OBJECT_TYPE":"PAYLOAD","INCLINATION":"53.0562","NORAD_CAT_ID":"48675","REF_FRAME":"TEME","COUNTRY_CODE":"US","LAUNCH_DATE":"2021-05-26"},{"FILE":"3141323","GP_ID":"186053648","OBJECT_ID":"2021-044AQ","SEMIMAJOR_AXIS":"6925.350","EPHEMERIS_TYPE":"0","MEAN_ANOMALY":"290.9298","OBJECT_TYPE":"PAYLOAD","INCLINATION":"53.0556","NORAD_CAT_ID":"48676","REF_FRAME":"TEME","COUNTRY_CODE":"US","LAUNCH_DATE":"2021-05-26","MEAN_ELEMENT_THEORY":"SGP4","MEAN_MOTION":"15.06399506","REV_AT_EPOCH":"1983","ECCENTRICITY":"0.00020160","TIME_SYSTEM":"UTC","PERIOD":"95.592","MEAN_MOTION_DOT":"0.00001854","ARG_OF_PERICENTER":"69.1907","APOAPSIS":"548.611","EPOCH":"2021-10-02T17:48:51.670944","RCS_SIZE":"LARGE","SITE":"AFETR","MEAN_MOTION_DDOT":"0.0000000000000","BSTAR":"0.00014333000000","PERIAPSIS":"545.819","RA_OF_ASC_NODE":"179.3394","OBJECT_NAME":"STARLINK-2746","ELEMENT_SET_NO":"999","TLE_LINE1":"1 48676U 21044AQ  21275.74226471  .00001854  00000-0  14333-3 0  9997","TLE_LINE2":"2 48676  53.0556 179.3394 0002016  69.1907 290.9298 15.06399506 19838","DECAY_DATE":null,"CENTER_NAME":"EARTH","CLASSIFICATION_TYPE":"U"},{"SITE":"AFETR","MEAN_MOTION_DDOT":"0.0000000000000","RCS_SIZE":"LARGE","APOAPSIS":"548.518","EPOCH":"2021-10-02T17:43:33.153888","ARG_OF_PERICENTER":"66.0334","MEAN_MOTION_DOT":"-0.00000200","CENTER_NAME":"EARTH","CLASSIFICATION_TYPE":"U","DECAY_DATE":null,"TLE_LINE2":"2 48677  53.0553 179.3549 0001876  66.0334 294.0852 15.06398419 19834","TLE_LINE1":"1 48677U 21044AR  21275.73857817 -.00000200  00000-0  54743-5 0  9997","ELEMENT_SET_NO":"999","RA_OF_ASC_NODE":"179.3549","OBJECT_NAME":"STARLINK-2719","PERIAPSIS":"545.919","BSTAR":"0.00000547430000","LAUNCH_DATE":"2021-05-26","COUNTRY_CODE":"US","REF_FRAME":"TEME","OBJECT_TYPE":"PAYLOAD","INCLINATION":"53.0553","NORAD_CAT_ID":"48677","EPHEMERIS_TYPE":"0","MEAN_ANOMALY":"294.0852","SEMIMAJOR_AXIS":"6925.353","OBJECT_ID":"2021-044AR","GP_ID":"186053759","FILE":"3141323","PERIOD":"95.592","REV_AT_EPOCH":"1983","ECCENTRICITY":"0.00018760","TIME_SYSTEM":"UTC","MEAN_MOTION":"15.06398419","MEAN_ELEMENT_THEORY":"SGP4"},{"PERIOD":"95.592","REV_AT_EPOCH":"1983","ECCENTRICITY":"0.00017830","TIME_SYSTEM":"UTC","MEAN_ELEMENT_THEORY":"SGP4","MEAN_MOTION":"15.06404246","COUNTRY_CODE":"US","LAUNCH_DATE":"2021-05-26","REF_FRAME":"TEME","EPHEMERIS_TYPE":"0","MEAN_ANOMALY":"290.4031","INCLINATION":"53.0559","OBJECT_TYPE":"PAYLOAD","NORAD_CAT_ID":"48678","GP_ID":"186053540","FILE":"3141323","OBJECT_ID":"2021-044AS","SEMIMAJOR_AXIS":"6925.336","TLE_LINE2":"2 48678  53.0559 179.3741 0001783  69.7150 290.4031 15.06404246 19833","DECAY_DATE":null,"TLE_LINE1":"1 48678U 21044AS  21275.73489159  .00000179  00000-0  30896-4 0  9994","CENTER_NAME":"EARTH","CLASSIFICATION_TYPE":"U","RA_OF_ASC_NODE":"179.3741","OBJECT_NAME":"STARLINK-2615","ELEMENT_SET_NO":"999","PERIAPSIS":"545.966","BSTAR":"0.00003089600000","RCS_SIZE":"LARGE","SITE":"AFETR","MEAN_MOTION_DDOT":"0.0000000000000","APOAPSIS":"548.435","EPOCH":"2021-10-02T17:38:14.633376","ARG_OF_PERICENTER":"69.7150","MEAN_MOTION_DOT":"0.00000179"},{"TIME_SYSTEM":"UTC","REV_AT_EPOCH":"1983","ECCENTRICITY":"0.00016680","PERIOD":"95.592","MEAN_MOTION":"15.06399587","MEAN_ELEMENT_THEORY":"SGP4","REF_FRAME":"TEME","LAUNCH_DATE":"2021-05-26","COUNTRY_CODE":"US","SEMIMAJOR_AXIS":"6925.350","GP_ID":"186054191","OBJECT_ID":"2021-044AT","FILE":"3141323","NORAD_CAT_ID":"48679","INCLINATION":"53.0562","OBJECT_TYPE":"PAYLOAD","MEAN_ANOMALY":"294.4600","EPHEMERIS_TYPE":"0","ELEMENT_SET_NO":"999","OBJECT_NAME":"STARLINK-2648","RA_OF_ASC_NODE":"179.3911","CLASSIFICATION_TYPE":"U","CENTER_NAME":"EARTH","TLE_LINE2":"2 48679  53.0562 179.3911 0001668  65.6563 294.4600 15.06399587 19839","TLE_LINE1":"1 48679U 21044AT  21275.73120631  .00002692  00000-0  19956-3 0  9997","DECAY_DATE":null,"BSTAR":"0.00019956000000","PERIAPSIS":"546.060","APOAPSIS":"548.370","EPOCH":"2021-10-02T17:32:56.225184","MEAN_MOTION_DDOT":"0.0000000000000","SITE":"AFETR","RCS_SIZE":"LARGE","MEAN_MOTION_DOT":"0.00002692","ARG_OF_PERICENTER":"65.6563"},{"EPHEMERIS_TYPE":"0","MEAN_ANOMALY":"289.7575","NORAD_CAT_ID":"48680","INCLINATION":"53.0553","OBJECT_TYPE":"PAYLOAD","GP_ID":"186053976","FILE":"3141323","OBJECT_ID":"2021-044AU","SEMIMAJOR_AXIS":"6925.347","COUNTRY_CODE":"US","LAUNCH_DATE":"2021-05-26","REF_FRAME":"TEME","MEAN_ELEMENT_THEORY":"SGP4","MEAN_MOTION":"15.06400507","PERIOD":"95.592","TIME_SYSTEM":"UTC","REV_AT_EPOCH":"1979","ECCENTRICITY":"0.00015910","ARG_OF_PERICENTER":"70.3585","MEAN_MOTION_DOT":"0.00002192","RCS_SIZE":"LARGE","MEAN_MOTION_DDOT":"0.0000000000000","SITE":"AFETR","APOAPSIS":"548.314","EPOCH":"2021-10-02T11:05:27.830688","PERIAPSIS":"546.110","BSTAR":"0.00016602000000","TLE_LINE1":"1 48680U 21044AU  21275.46212767  .00002192  00000-0  16602-3 0  9991","TLE_LINE2":"2 48680  53.0553 180.5972 0001591  70.3585 289.7575 15.06400507 19792","DECAY_DATE":null,"CLASSIFICATION_TYPE":"U","CENTER_NAME":"EARTH","OBJECT_NAME":"STARLINK-2649","RA_OF_ASC_NODE":"180.5972","ELEMENT_SET_NO":"999"},{"EPOCH":"2021-10-03T00:00:00.999648","APOAPSIS":"528.548","SITE":"AFETR","MEAN_MOTION_DDOT":"0.0000000000000","RCS_SIZE":"LARGE","MEAN_MOTION_DOT":"-0.01054778","ARG_OF_PERICENTER":"57.7501","ELEMENT_SET_NO":"999","RA_OF_ASC_NODE":"148.4884","OBJECT_NAME":"STARLINK-2725","CENTER_NAME":"EARTH","CLASSIFICATION_TYPE":"U","TLE_LINE2":"2 48681  53.0488 148.4884 0001560  57.7501  77.1639 15.12864704  3634","TLE_LINE1":"1 48681U 21044AV  21276.00001157 -.01054778  00000-0 -63930-1 0  9996","DECAY_DATE":null,"BSTAR":"-0.06393000000000","PERIAPSIS":"526.393","REF_FRAME":"TEME","LAUNCH_DATE":"2021-05-26","COUNTRY_CODE":"US","SEMIMAJOR_AXIS":"6905.606","OBJECT_ID":"2021-044AV","GP_ID":"186053432","FILE":"3141323","INCLINATION":"53.0488","OBJECT_TYPE":"PAYLOAD","NORAD_CAT_ID":"48681","MEAN_ANOMALY":"77.1639","EPHEMERIS_TYPE":"0","REV_AT_EPOCH":"363","ECCENTRICITY":"0.00015600","TIME_SYSTEM":"UTC","PERIOD":"95.184","MEAN_MOTION":"15.12864704","MEAN_ELEMENT_THEORY":"SGP4"},{"SEMIMAJOR_AXIS":"6767.625","GP_ID":"186053868","FILE":"3141323","OBJECT_ID":"2021-044AW","NORAD_CAT_ID":"48682","OBJECT_TYPE":"PAYLOAD","INCLINATION":"53.0448","EPHEMERIS_TYPE":"0","MEAN_ANOMALY":"46.3697","REF_FRAME":"TEME","LAUNCH_DATE":"2021-05-26","COUNTRY_CODE":"US","MEAN_MOTION":"15.59366964","MEAN_ELEMENT_THEORY":"SGP4","TIME_SYSTEM":"UTC","REV_AT_EPOCH":"367","ECCENTRICITY":"0.00012280","PERIOD":"92.345","MEAN_MOTION_DOT":"-0.01086391","ARG_OF_PERICENTER":"82.3545","APOAPSIS":"390.321","EPOCH":"2021-10-03T00:00:00.999648","MEAN_MOTION_DDOT":"0.0000000000000","SITE":"AFETR","RCS_SIZE":"LARGE","BSTAR":"-0.01488700000000","PERIAPSIS":"388.659","ELEMENT_SET_NO":"999","OBJECT_NAME":"STARLINK-2743","RA_OF_ASC_NODE":"142.7807","CLASSIFICATION_TYPE":"U","CENTER_NAME":"EARTH","TLE_LINE2":"2 48682  53.0448 142.7807 0001228  82.3545  46.3697 15.59366964  3678","DECAY_DATE":null,"TLE_LINE1":"1 48682U 21044AW  21276.00001157 -.01086391  00000-0 -14887-1 0  9990"},{"MEAN_ELEMENT_THEORY":"SGP4","MEAN_MOTION":"15.60934358","TIME_SYSTEM":"UTC","REV_AT_EPOCH":"367","ECCENTRICITY":"0.00013550","PERIOD":"92.252","GP_ID":"186054085","FILE":"3141323","OBJECT_ID":"2021-044AX","SEMIMAJOR_AXIS":"6763.094","MEAN_ANOMALY":"70.7023","EPHEMERIS_TYPE":"0","NORAD_CAT_ID":"48683","INCLINATION":"53.0459","OBJECT_TYPE":"PAYLOAD","REF_FRAME":"TEME","COUNTRY_CODE":"US","LAUNCH_DATE":"2021-05-26","BSTAR":"-0.01392100000000","PERIAPSIS":"384.042","OBJECT_NAME":"STARLINK-2756","RA_OF_ASC_NODE":"142.7276","ELEMENT_SET_NO":"999","TLE_LINE2":"2 48683  53.0459 142.7276 0001355  89.6566  70.7023 15.60934358  3679","TLE_LINE1":"1 48683U 21044AX  21276.00001157 -.01079891  00000-0 -13921-1 0  9996","DECAY_DATE":null,"CLASSIFICATION_TYPE":"U","CENTER_NAME":"EARTH","MEAN_MOTION_DOT":"-0.01079891","ARG_OF_PERICENTER":"89.6566","APOAPSIS":"385.875","EPOCH":"2021-10-03T00:00:00.999648","RCS_SIZE":"LARGE","MEAN_MOTION_DDOT":"0.0000000000000","SITE":"AFETR"}];
